{
  "type": "FeatureCollection",
  "features": [
    {
      "type": "Feature",
      "properties": {
        "norad_id": 33886,
        "name": "IRIDIUM 33 DEB",
        "group": "iridium-33-debris",
        "lat": -72.80216128466341,
        "lon": 53.36494610807485,
        "alt_km": 774.8156838720979,
        "timestamp": "2025-12-17T15:50:10.165936+00:00",
        "meta_object_name": "IRIDIUM 33 DEB",
        "meta_object_id": "1997-051BF",
        "meta_epoch": "2025-12-17T06:25:35.309856",
        "meta_mean_motion": 14.36057455,
        "meta_eccentricity": 0.00126543,
        "meta_inclination": 86.3828,
        "meta_ra_of_asc_node": 65.323,
        "meta_arg_of_pericenter": 225.2685,
        "meta_mean_anomaly": 195.8206,
        "meta_ephemeris_type": 0,
        "meta_classification_type": "U",
        "meta_norad_cat_id": 33886,
        "meta_element_set_no": 999,
        "meta_rev_at_epoch": 88117,
        "meta_bstar": 0.00016826219,
        "meta_mean_motion_dot": 5.09e-06,
        "meta_mean_motion_ddot": 0,
        "tle_line1": "1 33886U 97051BF  25351.26776979  .00000509  00000+0  16826-3 0  9998",
        "tle_line2": "2 33886  86.3828  65.3230 0012654 225.2685 195.8206 14.36057455881178"
      },
      "geometry": {
        "type": "Point",
        "coordinates": [
          53.36494610807485,
          -72.80216128466341
        ]
      }
    },
    {
      "type": "Feature",
      "properties": {
        "norad_id": 33887,
        "name": "IRIDIUM 33 DEB",
        "group": "iridium-33-debris",
        "lat": -63.511770107573504,
        "lon": -171.27553805199904,
        "alt_km": 772.1888721938585,
        "timestamp": "2025-12-17T15:50:10.165948+00:00",
        "meta_object_name": "IRIDIUM 33 DEB",
        "meta_object_id": "1997-051BG",
        "meta_epoch": "2025-12-17T08:19:36.056640",
        "meta_mean_motion": 14.37225174,
        "meta_eccentricity": 0.00048876,
        "meta_inclination": 86.3042,
        "meta_ra_of_asc_node": 1.4067,
        "meta_arg_of_pericenter": 207.4376,
        "meta_mean_anomaly": 218.3272,
        "meta_ephemeris_type": 0,
        "meta_classification_type": "U",
        "meta_norad_cat_id": 33887,
        "meta_element_set_no": 999,
        "meta_rev_at_epoch": 88231,
        "meta_bstar": 0.00012958579,
        "meta_mean_motion_dot": 4.05e-06,
        "meta_mean_motion_ddot": 0,
        "tle_line1": "1 33887U 97051BG  25351.34694510  .00000405  00000+0  12959-3 0  9996",
        "tle_line2": "2 33887  86.3042   1.4067 0004887 207.4376 218.3272 14.37225174882311"
      },
      "geometry": {
        "type": "Point",
        "coordinates": [
          -171.27553805199904,
          -63.511770107573504
        ]
      }
    },
    {
      "type": "Feature",
      "properties": {
        "norad_id": 33953,
        "name": "IRIDIUM 33 DEB",
        "group": "iridium-33-debris",
        "lat": 59.44393713704744,
        "lon": 57.79199931005894,
        "alt_km": 691.1215294251297,
        "timestamp": "2025-12-17T15:50:10.165959+00:00",
        "meta_object_name": "IRIDIUM 33 DEB",
        "meta_object_id": "1997-051BN",
        "meta_epoch": "2025-12-17T04:08:26.339712",
        "meta_mean_motion": 14.55368101,
        "meta_eccentricity": 0.00181835,
        "meta_inclination": 86.3848,
        "meta_ra_of_asc_node": 51.8558,
        "meta_arg_of_pericenter": 89.4341,
        "meta_mean_anomaly": 298.8096,
        "meta_ephemeris_type": 0,
        "meta_classification_type": "U",
        "meta_norad_cat_id": 33953,
        "meta_element_set_no": 999,
        "meta_rev_at_epoch": 88368,
        "meta_bstar": 0.00084794262,
        "meta_mean_motion_dot": 3.708e-05,
        "meta_mean_motion_ddot": 0,
        "tle_line1": "1 33953U 97051BN  25351.17252708  .00003708  00000+0  84794-3 0  9995",
        "tle_line2": "2 33953  86.3848  51.8558 0018183  89.4341 298.8096 14.55368101883683"
      },
      "geometry": {
        "type": "Point",
        "coordinates": [
          57.79199931005894,
          59.44393713704744
        ]
      }
    },
    {
      "type": "Feature",
      "properties": {
        "norad_id": 33960,
        "name": "IRIDIUM 33 DEB",
        "group": "iridium-33-debris",
        "lat": 34.04394222631478,
        "lon": -70.26904796629098,
        "alt_km": 605.2306815653365,
        "timestamp": "2025-12-17T15:50:10.165972+00:00",
        "meta_object_name": "IRIDIUM 33 DEB",
        "meta_object_id": "1997-051BV",
        "meta_epoch": "2025-12-17T08:08:09.314016",
        "meta_mean_motion": 14.85425899,
        "meta_eccentricity": 0.00074619,
        "meta_inclination": 86.2537,
        "meta_ra_of_asc_node": 287.345,
        "meta_arg_of_pericenter": 54.6753,
        "meta_mean_anomaly": 64.9826,
        "meta_ephemeris_type": 0,
        "meta_classification_type": "U",
        "meta_norad_cat_id": 33960,
        "meta_element_set_no": 999,
        "meta_rev_at_epoch": 88935,
        "meta_bstar": 0.0023413728,
        "meta_mean_motion_dot": 0.00020242,
        "meta_mean_motion_ddot": 0,
        "tle_line1": "1 33960U 97051BV  25351.33899669  .00020242  00000+0  23414-2 0  9997",
        "tle_line2": "2 33960  86.2537 287.3450 0007461  54.6753  64.9826 14.85425899889354"
      },
      "geometry": {
        "type": "Point",
        "coordinates": [
          -70.26904796629098,
          34.04394222631478
        ]
      }
    },
    {
      "type": "Feature",
      "properties": {
        "norad_id": 33966,
        "name": "IRIDIUM 33 DEB",
        "group": "iridium-33-debris",
        "lat": 83.06882292948697,
        "lon": 75.17966157612119,
        "alt_km": 719.3167713517623,
        "timestamp": "2025-12-17T15:50:10.165983+00:00",
        "meta_object_name": "IRIDIUM 33 DEB",
        "meta_object_id": "1997-051CB",
        "meta_epoch": "2025-12-17T04:05:58.761600",
        "meta_mean_motion": 14.49612302,
        "meta_eccentricity": 0.00079415,
        "meta_inclination": 86.3924,
        "meta_ra_of_asc_node": 44.1261,
        "meta_arg_of_pericenter": 173.8443,
        "meta_mean_anomaly": 239.9651,
        "meta_ephemeris_type": 0,
        "meta_classification_type": "U",
        "meta_norad_cat_id": 33966,
        "meta_element_set_no": 999,
        "meta_rev_at_epoch": 88506,
        "meta_bstar": 0.00040431278,
        "meta_mean_motion_dot": 1.573e-05,
        "meta_mean_motion_ddot": 0,
        "tle_line1": "1 33966U 97051CB  25351.17081900  .00001573  00000+0  40431-3 0  9991",
        "tle_line2": "2 33966  86.3924  44.1261 0007941 173.8443 239.9651 14.49612302885064"
      },
      "geometry": {
        "type": "Point",
        "coordinates": [
          75.17966157612119,
          83.06882292948697
        ]
      }
    },
    {
      "type": "Feature",
      "properties": {
        "norad_id": 34071,
        "name": "IRIDIUM 33 DEB",
        "group": "iridium-33-debris",
        "lat": 31.436633810005834,
        "lon": -166.54887448180736,
        "alt_km": 721.4787677117001,
        "timestamp": "2025-12-17T15:50:10.165995+00:00",
        "meta_object_name": "IRIDIUM 33 DEB",
        "meta_object_id": "1997-051CE",
        "meta_epoch": "2025-12-17T08:31:38.734752",
        "meta_mean_motion": 14.49485543,
        "meta_eccentricity": 0.00099985,
        "meta_inclination": 86.3454,
        "meta_ra_of_asc_node": 15.8225,
        "meta_arg_of_pericenter": 95.3551,
        "meta_mean_anomaly": 264.8794,
        "meta_ephemeris_type": 0,
        "meta_classification_type": "U",
        "meta_norad_cat_id": 34071,
        "meta_element_set_no": 999,
        "meta_rev_at_epoch": 88401,
        "meta_bstar": 0.00046910967,
        "meta_mean_motion_dot": 1.817e-05,
        "meta_mean_motion_ddot": 0,
        "tle_line1": "1 34071U 97051CE  25351.35530943  .00001817  00000+0  46911-3 0  9995",
        "tle_line2": "2 34071  86.3454  15.8225 0009998  95.3551 264.8794 14.49485543884011"
      },
      "geometry": {
        "type": "Point",
        "coordinates": [
          -166.54887448180736,
          31.436633810005834
        ]
      }
    },
    {
      "type": "Feature",
      "properties": {
        "norad_id": 34077,
        "name": "IRIDIUM 33 DEB",
        "group": "iridium-33-debris",
        "lat": -81.94859220409725,
        "lon": -104.12130379700666,
        "alt_km": 688.4326919335444,
        "timestamp": "2025-12-17T15:50:10.166007+00:00",
        "meta_object_name": "IRIDIUM 33 DEB",
        "meta_object_id": "1997-051CL",
        "meta_epoch": "2025-12-17T05:06:00.686880",
        "meta_mean_motion": 14.6488542,
        "meta_eccentricity": 0.00097119,
        "meta_inclination": 86.386,
        "meta_ra_of_asc_node": 49.5374,
        "meta_arg_of_pericenter": 25.5693,
        "meta_mean_anomaly": 39.7972,
        "meta_ephemeris_type": 0,
        "meta_classification_type": "U",
        "meta_norad_cat_id": 34077,
        "meta_element_set_no": 999,
        "meta_rev_at_epoch": 88398,
        "meta_bstar": 0.00074706327,
        "meta_mean_motion_dot": 4.016e-05,
        "meta_mean_motion_ddot": 0,
        "tle_line1": "1 34077U 97051CL  25351.21250795  .00004016  00000+0  74706-3 0  9997",
        "tle_line2": "2 34077  86.3860  49.5374 0009711  25.5693  39.7972 14.64885420883989"
      },
      "geometry": {
        "type": "Point",
        "coordinates": [
          -104.12130379700666,
          -81.94859220409725
        ]
      }
    }
  ]
}